*******************************************************************************
Ephemeris / WWW_USER Mon Mar 26 22:05:33 2018 Pasadena, USA      / Horizons    
*******************************************************************************
Target body name: Phobos (401)                    {source: mar097}
Center body name: Solar System Barycenter (0)     {source: DE431mx}
Center-site name: BODY CENTER
*******************************************************************************
Start time      : A.D. 2000-Jan-01 00:00:00.0000 TDB
Stop  time      : A.D. 2005-Jan-01 00:00:00.0000 TDB
Step-size       : 7200 minutes
*******************************************************************************
Center geodetic : 0.00000000,0.00000000,0.0000000 {E-lon(deg),Lat(deg),Alt(km)}
Center cylindric: 0.00000000,0.00000000,0.0000000 {E-lon(deg),Dxy(km),Dz(km)}
Center radii    : (undefined)                                                  
Output units    : AU-D                                                         
Output type     : GEOMETRIC cartesian states
Output format   : 2 (position and velocity)
Reference frame : ICRF/J2000.0                                                 
Coordinate systm: Ecliptic and Mean Equinox of Reference Epoch                 
*******************************************************************************
JDTDB
   X     Y     Z
   VX    VY    VZ
*******************************************************************************
$$SOE
2452384.500000000 = A.D. 2002-Apr-20 00:00:00.0000 TDB 
   1.171358918713026E-01  1.549271519900282E+00  2.971222878120429E-02
  -1.415920407145687E-02  3.163663519781527E-03  7.811985946348283E-04
2452389.500000000 = A.D. 2002-Apr-25 00:00:00.0000 TDB 
   4.995066001835129E-02  1.558879322613866E+00  3.157440211908487E-02
  -1.239275499574983E-02  1.994135483702755E-03 -1.358680762786070E-04
2452394.500000000 = A.D. 2002-Apr-30 00:00:00.0000 TDB 
  -1.737664227634211E-02  1.565642348748607E+00  3.340488018209181E-02
  -1.361835328105831E-02 -1.828885164374494E-04  3.816017597213639E-04
2452399.500000000 = A.D. 2002-May-05 00:00:00.0000 TDB 
  -8.451305184227702E-02  1.569386960384226E+00  3.509256429508300E-02
  -1.434667876439254E-02  1.152255110050524E-03  8.182571124986850E-04
2452404.500000000 = A.D. 2002-May-10 00:00:00.0000 TDB 
  -1.515859125245968E-01  1.570014908956001E+00  3.675419319408755E-02
  -1.242696831027877E-02  4.524898417810369E-04 -1.225567225534244E-04
2452409.500000000 = A.D. 2002-May-15 00:00:00.0000 TDB 
  -2.184543237554530E-01  1.567861483398876E+00  3.839184263727458E-02
  -1.324276744518197E-02 -1.957359492693038E-03  2.220430737265258E-04
2452414.500000000 = A.D. 2002-May-20 00:00:00.0000 TDB 
  -2.847604061045285E-01  1.562821655725114E+00  3.988017514870935E-02
  -1.426385059983871E-02 -8.435169141625358E-04  8.283137678846441E-04
2452419.500000000 = A.D. 2002-May-25 00:00:00.0000 TDB 
  -3.506105793371965E-01  1.554751383169902E+00  4.131971949840890E-02
  -1.228829080645996E-02 -1.058196406098108E-03 -9.144868266989621E-05
2452424.500000000 = A.D. 2002-May-30 00:00:00.0000 TDB 
  -4.159338199968576E-01  1.543993827937939E+00  4.274253824709148E-02
  -1.265890763180188E-02 -3.605774762762315E-03  6.217425622622179E-05
2452429.500000000 = A.D. 2002-Jun-04 00:00:00.0000 TDB 
  -4.803593561850210E-01  1.530517122203275E+00  4.401475071562955E-02
  -1.392149083566767E-02 -2.789066597987064E-03  8.093042963748417E-04
2452434.500000000 = A.D. 2002-Jun-09 00:00:00.0000 TDB 
  -5.439621360874938E-01  1.514138443085656E+00  4.521551574365657E-02
  -1.198713730714780E-02 -2.527539622100248E-03 -4.476933301623424E-05
2452439.500000000 = A.D. 2002-Jun-14 00:00:00.0000 TDB 
  -6.067390962935535E-01  1.495192168306071E+00  4.640555989359715E-02
  -1.189547431891429E-02 -5.111263266772605E-03 -9.158060385759369E-05
2452444.500000000 = A.D. 2002-Jun-19 00:00:00.0000 TDB 
  -6.683193015395025E-01  1.473721477394097E+00  4.744867285367330E-02
  -1.333350439676226E-02 -4.652402522477927E-03  7.602931987645865E-04
2452449.500000000 = A.D. 2002-Jun-24 00:00:00.0000 TDB 
  -7.287374593776360E-01  1.449514522086146E+00  4.839847460808646E-02
  -1.153241018041440E-02 -3.946649775620925E-03  1.423945217806315E-05
2452454.500000000 = A.D. 2002-Jun-29 00:00:00.0000 TDB 
  -7.880534544887700E-01  1.422881430681018E+00  4.934163832100346E-02
  -1.098030781291904E-02 -6.463076043756871E-03 -2.332260694647834E-04
2452459.500000000 = A.D. 2002-Jul-04 00:00:00.0000 TDB 
  -8.459090945673204E-01  1.393939487317460E+00  5.014605647420618E-02
  -1.251652776199469E-02 -6.403840764547453E-03  6.816095210011967E-04
2452464.500000000 = A.D. 2002-Jul-09 00:00:00.0000 TDB 
  -9.022924232547531E-01  1.362459729153126E+00  5.083687639263232E-02
  -1.093134616687262E-02 -5.307436431593495E-03  8.143447787737887E-05
2452469.500000000 = A.D. 2002-Jul-14 00:00:00.0000 TDB 
  -9.573184745988619E-01  1.328714431734994E+00  5.152268418212756E-02
  -9.939468157308553E-03 -7.655341530358134E-03 -3.574848674930315E-04
2452474.500000000 = A.D. 2002-Jul-19 00:00:00.0000 TDB 
  -1.010654390628627E+00  1.292891174060141E+00  5.208184136305849E-02
  -1.148971687959477E-02 -8.016552981070733E-03  5.749255520060621E-04
2452479.500000000 = A.D. 2002-Jul-24 00:00:00.0000 TDB 
  -1.062237808500393E+00  1.254757239395007E+00  5.250947190114218E-02
  -1.018968212148475E-02 -6.601396692392071E-03  1.519281571079880E-04
2452484.500000000 = A.D. 2002-Jul-29 00:00:00.0000 TDB 
  -1.112228819654291E+00  1.214535909956743E+00  5.293090838770809E-02
  -8.796877554892293E-03 -8.686429391282148E-03 -4.599004580420589E-04
2452489.500000000 = A.D. 2002-Aug-03 00:00:00.0000 TDB 
  -1.160331613882019E+00  1.172478448669652E+00  5.324095257121474E-02
  -1.027439191595076E-02 -9.466421010672481E-03  4.432698890671476E-04
2452494.500000000 = A.D. 2002-Aug-08 00:00:00.0000 TDB 
  -1.206432602994416E+00  1.128362468690284E+00  5.340466064041959E-02
  -9.312316653779500E-03 -7.819153431469770E-03  2.204576113802945E-04
2452499.500000000 = A.D. 2002-Aug-13 00:00:00.0000 TDB 
  -1.250725074606388E+00  1.082354027394968E+00  5.355803052618350E-02
  -7.573707177273993E-03 -9.557691906270979E-03 -5.371696893979623E-04
2452504.500000000 = A.D. 2002-Aug-18 00:00:00.0000 TDB 
  -1.292960624732425E+00  1.034758926247157E+00  5.361758984203928E-02
  -8.893911102985640E-03 -1.073255766696829E-02  2.910151104636386E-04
2452509.500000000 = A.D. 2002-Aug-23 00:00:00.0000 TDB 
  -1.332976565642828E+00  9.853791059425320E-01  5.351980372857448E-02
  -8.303493729533623E-03 -8.949850190510736E-03  2.815026519859771E-04
2452514.500000000 = A.D. 2002-Aug-28 00:00:00.0000 TDB 
  -1.370986388139204E+00  9.343184571577609E-01  5.340463457949830E-02
  -6.288427448451580E-03 -1.027280172583781E-02 -5.871549354657665E-04
2452519.500000000 = A.D. 2002-Sep-02 00:00:00.0000 TDB 
  -1.406797630185386E+00  8.819259554038155E-01  5.321464862318581E-02
  -7.373047961068657E-03 -1.179737226915130E-02  1.235847696215116E-04
2452524.500000000 = A.D. 2002-Sep-07 00:00:00.0000 TDB 
  -1.440203481302619E+00  8.280410604153077E-01  5.286067669315394E-02
  -7.167799073347420E-03 -9.980900397812617E-03  3.297854208848012E-04
2452529.500000000 = A.D. 2002-Sep-12 00:00:00.0000 TDB 
  -1.471424170057430E+00  7.727039889236248E-01  5.247965058718576E-02
  -4.956570948406735E-03 -1.083662351148377E-02 -6.091471075284928E-04
2452534.500000000 = A.D. 2002-Sep-17 00:00:00.0000 TDB 
  -1.500329527891136E+00  7.162938239169298E-01  5.204328041804967E-02
  -5.737955809795658E-03 -1.264663209376700E-02 -5.260931829032490E-05
2452539.500000000 = A.D. 2002-Sep-22 00:00:00.0000 TDB 
  -1.526676203913119E+00  6.586991840454751E-01  5.144106770546210E-02
  -5.910481937302979E-03 -1.089780279009163E-02  3.604656337442023E-04
2452544.500000000 = A.D. 2002-Sep-27 00:00:00.0000 TDB 
  -1.550677903259225E+00  5.998986102072480E-01  5.079998485370948E-02
  -3.591202465994359E-03 -1.125436765020697E-02 -6.037507243058022E-04
2452549.500000000 = A.D. 2002-Oct-02 00:00:00.0000 TDB 
  -1.572270652176565E+00  5.402870484817363E-01  5.012260263297483E-02
  -4.015446616544844E-03 -1.326970563058722E-02 -2.306613533787716E-04
2452554.500000000 = A.D. 2002-Oct-07 00:00:00.0000 TDB 
  -1.591184365808553E+00  4.798117887140136E-01  4.928253374608398E-02
  -4.538466869587043E-03 -1.168422504673467E-02  3.696071733304390E-04
2452559.500000000 = A.D. 2002-Oct-12 00:00:00.0000 TDB 
  -1.607613851679631E+00  4.183950116692687E-01  4.839030222742850E-02
  -2.203032550197939E-03 -1.153105216501321E-02 -5.729814965756689E-04
2452564.500000000 = A.D. 2002-Oct-17 00:00:00.0000 TDB 
  -1.621562605136925E+00  3.564327667620720E-01  4.747953956125932E-02
  -2.232915518382307E-03 -1.365940338273130E-02 -4.033101030072373E-04
2452569.500000000 = A.D. 2002-Oct-22 00:00:00.0000 TDB 
  -1.632745396634008E+00  2.939378607661921E-01  4.641428969491124E-02
  -3.060763417191225E-03 -1.232245743212926E-02  3.543495966962390E-04
2452574.500000000 = A.D. 2002-Oct-27 00:00:00.0000 TDB 
  -1.641327248383957E+00  2.307844667755302E-01  4.528292385641049E-02
  -8.011172527070335E-04 -1.167049375089900E-02 -5.200311397692108E-04
2452579.500000000 = A.D. 2002-Nov-01 00:00:00.0000 TDB 
  -1.647377772242567E+00  1.673550924849747E-01  4.414879109965211E-02
  -4.177226456329645E-04 -1.381205779391268E-02 -5.634840616009023E-04
2452584.500000000 = A.D. 2002-Nov-06 00:00:00.0000 TDB 
  -1.650609393413651E+00  1.037319026494499E-01  4.287322961693201E-02
  -1.489135798071279E-03 -1.279351453131168E-02  3.131816666156730E-04
2452589.500000000 = A.D. 2002-Nov-11 00:00:00.0000 TDB 
  -1.651148534310153E+00  3.975196879246581E-02  4.151787301271290E-02
   6.067516568407805E-04 -1.167514834278062E-02 -4.491683971375916E-04
